ONEWEB-0710             
1 55173U 23004AK  24042.87137532 -.00000128  00000+0 -36273-3 0  9994
2 55173  87.9242 176.2002 0001326 100.7368 259.3913 13.17649598 54813
ONEWEB-0711             
1 55174U 23004AL  24042.89688275 -.00000553  00000+0 -15975-2 0  9999
2 55174  87.8994 191.2897 0001420 141.5483 218.5747 13.11418790 53602
ONEWEB-0713             
1 55175U 23004AM  24042.91472973 -.00000086  00000+0 -27944-3 0  9990
2 55175  87.8996 191.2937 0001461 118.2067 241.9209 13.11417996 53592
ONEWEB-0715             
1 55176U 23004AN  24042.90985956 -.00000360  00000+0 -10524-2 0  9990
2 55176  87.8999 191.2950 0001601 110.7096 249.4203 13.11417944 53631
ONEWEB-0716             
1 55177U 23004AP  24042.86505747 -.00000004  00000+0 -44006-4 0  9991
2 55177  87.9246 176.1905 0001864 101.2565 258.8776 13.17649608 54817
ONEWEB-0530             
1 55796U 23029A   24042.65992683  .00000063  00000+0  12423-3 0  9991
2 55796  87.9144  84.9571 0001710 115.2877 244.8434 13.20769390 48080
